CCSDS_OMM_VERS = 2.0
CREATION_DATE  = 
ORIGINATOR     = 

OBJECT_NAME    = CENTISPACE-1 OBJECT J
OBJECT_ID      = 2026-060J
CENTER_NAME    = EARTH
REF_FRAME      = TEME
TIME_SYSTEM    = UTC
MEAN_ELEMENT_THEORY = SGP/SGP4

EPOCH          = 2026-03-31T22:02:32.676000
MEAN_MOTION    = 14.75410591
ECCENTRICITY   = .00147259
INCLINATION    = 54.9876
RA_OF_ASC_NODE = 350.9118
ARG_OF_PERICENTER = 324.9275
MEAN_ANOMALY   = 35.0754

EPHEMERIS_TYPE = 0
CLASSIFICATION_TYPE = U
NORAD_CAT_ID   = 68358
ELEMENT_SET_NO = 999
REV_AT_EPOCH   = 137
BSTAR          = .44082868E-4
MEAN_MOTION_DOT = .91E-6
MEAN_MOTION_DDOT = 0

CCSDS_OMM_VERS = 2.0
CREATION_DATE  = 
ORIGINATOR     = 

OBJECT_NAME    = CENTISPACE-1 OBJECT K
OBJECT_ID      = 2026-060K
CENTER_NAME    = EARTH
REF_FRAME      = TEME
TIME_SYSTEM    = UTC
MEAN_ELEMENT_THEORY = SGP/SGP4

EPOCH          = 2026-04-01T17:32:29.893920
MEAN_MOTION    = 14.75493204
ECCENTRICITY   = .00151156
INCLINATION    = 54.9775
RA_OF_ASC_NODE = 347.5897
ARG_OF_PERICENTER = 326.6312
MEAN_ANOMALY   = 33.3734

EPHEMERIS_TYPE = 0
CLASSIFICATION_TYPE = U
NORAD_CAT_ID   = 68359
ELEMENT_SET_NO = 999
REV_AT_EPOCH   = 149
BSTAR          = .37852544E-4
MEAN_MOTION_DOT = .49E-6
MEAN_MOTION_DDOT = 0

CCSDS_OMM_VERS = 2.0
CREATION_DATE  = 
ORIGINATOR     = 

OBJECT_NAME    = RASSVET-3 1
OBJECT_ID      = 2026-061A
CENTER_NAME    = EARTH
REF_FRAME      = TEME
TIME_SYSTEM    = UTC
MEAN_ELEMENT_THEORY = SGP/SGP4

EPOCH          = 2026-04-02T22:10:13.636416
MEAN_MOTION    = 15.89457858
ECCENTRICITY   = .00256623
INCLINATION    = 82.2950
RA_OF_ASC_NODE = 97.1434
ARG_OF_PERICENTER = 36.9801
MEAN_ANOMALY   = 323.3232

EPHEMERIS_TYPE = 0
CLASSIFICATION_TYPE = U
NORAD_CAT_ID   = 68360
ELEMENT_SET_NO = 999
REV_AT_EPOCH   = 162
BSTAR          = .33491242E-3
MEAN_MOTION_DOT = .10008E-2
MEAN_MOTION_DDOT = .2345277E-5

CCSDS_OMM_VERS = 2.0
CREATION_DATE  = 
ORIGINATOR     = 

OBJECT_NAME    = RASSVET-3 2
OBJECT_ID      = 2026-061B
CENTER_NAME    = EARTH
REF_FRAME      = TEME
TIME_SYSTEM    = UTC
MEAN_ELEMENT_THEORY = SGP/SGP4

EPOCH          = 2026-04-02T22:12:17.162496
MEAN_MOTION    = 15.88866923
ECCENTRICITY   = .00267972
INCLINATION    = 82.2966
RA_OF_ASC_NODE = 97.1461
ARG_OF_PERICENTER = 36.5265
MEAN_ANOMALY   = 323.7827

EPHEMERIS_TYPE = 0
CLASSIFICATION_TYPE = U
NORAD_CAT_ID   = 68361
ELEMENT_SET_NO = 999
REV_AT_EPOCH   = 162
BSTAR          = .31948951E-3
MEAN_MOTION_DOT = .9293E-3
MEAN_MOTION_DDOT = .184437E-5

CCSDS_OMM_VERS = 2.0
CREATION_DATE  = 
ORIGINATOR     = 

OBJECT_NAME    = RASSVET-3 3
OBJECT_ID      = 2026-061C
CENTER_NAME    = EARTH
REF_FRAME      = TEME
TIME_SYSTEM    = UTC
MEAN_ELEMENT_THEORY = SGP/SGP4

EPOCH          = 2026-04-02T22:12:04.096224
MEAN_MOTION    = 15.88871798
ECCENTRICITY   = .0026646
INCLINATION    = 82.2965
RA_OF_ASC_NODE = 97.1456
ARG_OF_PERICENTER = 36.3892
MEAN_ANOMALY   = 323.9184

EPHEMERIS_TYPE = 0
CLASSIFICATION_TYPE = U
NORAD_CAT_ID   = 68362
ELEMENT_SET_NO = 999
REV_AT_EPOCH   = 162
BSTAR          = .29943279E-3
MEAN_MOTION_DOT = .87109E-3
MEAN_MOTION_DDOT = .1482104E-5

CCSDS_OMM_VERS = 2.0
CREATION_DATE  = 
ORIGINATOR     = 

OBJECT_NAME    = RASSVET-3 4
OBJECT_ID      = 2026-061D
CENTER_NAME    = EARTH
REF_FRAME      = TEME
TIME_SYSTEM    = UTC
MEAN_ELEMENT_THEORY = SGP/SGP4

EPOCH          = 2026-04-02T22:11:52.024416
MEAN_MOTION    = 15.88885858
ECCENTRICITY   = .00266707
INCLINATION    = 82.2966
RA_OF_ASC_NODE = 97.1457
ARG_OF_PERICENTER = 36.2802
MEAN_ANOMALY   = 324.0271

EPHEMERIS_TYPE = 0
CLASSIFICATION_TYPE = U
NORAD_CAT_ID   = 68363
ELEMENT_SET_NO = 999
REV_AT_EPOCH   = 162
BSTAR          = .29166098E-3
MEAN_MOTION_DOT = .84922E-3
MEAN_MOTION_DDOT = .1352492E-5

CCSDS_OMM_VERS = 2.0
CREATION_DATE  = 
ORIGINATOR     = 

OBJECT_NAME    = RASSVET-3 5
OBJECT_ID      = 2026-061E
CENTER_NAME    = EARTH
REF_FRAME      = TEME
TIME_SYSTEM    = UTC
MEAN_ELEMENT_THEORY = SGP/SGP4

EPOCH          = 2026-04-02T22:11:42.096192
MEAN_MOTION    = 15.88910224
ECCENTRICITY   = .00266168
INCLINATION    = 82.2965
RA_OF_ASC_NODE = 97.1452
ARG_OF_PERICENTER = 36.3891
MEAN_ANOMALY   = 323.9183

EPHEMERIS_TYPE = 0
CLASSIFICATION_TYPE = U
NORAD_CAT_ID   = 68364
ELEMENT_SET_NO = 999
REV_AT_EPOCH   = 162
BSTAR          = .29993446E-3
MEAN_MOTION_DOT = .87417E-3
MEAN_MOTION_DDOT = .1501744E-5

CCSDS_OMM_VERS = 2.0
CREATION_DATE  = 
ORIGINATOR     = 

OBJECT_NAME    = RASSVET-3 6
OBJECT_ID      = 2026-061F
CENTER_NAME    = EARTH
REF_FRAME      = TEME
TIME_SYSTEM    = UTC
MEAN_ELEMENT_THEORY = SGP/SGP4

EPOCH          = 2026-04-02T22:11:17.484288
MEAN_MOTION    = 15.89019976
ECCENTRICITY   = .00264689
INCLINATION    = 82.2965
RA_OF_ASC_NODE = 97.1449
ARG_OF_PERICENTER = 36.4512
MEAN_ANOMALY   = 323.8555

EPHEMERIS_TYPE = 0
CLASSIFICATION_TYPE = U
NORAD_CAT_ID   = 68365
ELEMENT_SET_NO = 999
REV_AT_EPOCH   = 162
BSTAR          = .30496369E-3
MEAN_MOTION_DOT = .89338E-3
MEAN_MOTION_DDOT = .1622382E-5

CCSDS_OMM_VERS = 2.0
CREATION_DATE  = 
ORIGINATOR     = 

OBJECT_NAME    = RASSVET-3 7
OBJECT_ID      = 2026-061G
CENTER_NAME    = EARTH
REF_FRAME      = TEME
TIME_SYSTEM    = UTC
MEAN_ELEMENT_THEORY = SGP/SGP4

EPOCH          = 2026-04-02T22:11:25.504800
MEAN_MOTION    = 15.88939509
ECCENTRICITY   = .00264319
INCLINATION    = 82.2967
RA_OF_ASC_NODE = 97.1451
ARG_OF_PERICENTER = 36.4472
MEAN_ANOMALY   = 323.8592

EPHEMERIS_TYPE = 0
CLASSIFICATION_TYPE = U
NORAD_CAT_ID   = 68366
ELEMENT_SET_NO = 999
REV_AT_EPOCH   = 162
BSTAR          = .29790775E-3
MEAN_MOTION_DOT = .8692E-3
MEAN_MOTION_DDOT = .1472581E-5

CCSDS_OMM_VERS = 2.0
CREATION_DATE  = 
ORIGINATOR     = 

OBJECT_NAME    = RASSVET-3 8
OBJECT_ID      = 2026-061H
CENTER_NAME    = EARTH
REF_FRAME      = TEME
TIME_SYSTEM    = UTC
MEAN_ELEMENT_THEORY = SGP/SGP4

EPOCH          = 2026-04-02T19:10:09.280128
MEAN_MOTION    = 15.88895595
ECCENTRICITY   = .0026398
INCLINATION    = 82.2966
RA_OF_ASC_NODE = 97.2875
ARG_OF_PERICENTER = 36.9378
MEAN_ANOMALY   = 323.3704

EPHEMERIS_TYPE = 0
CLASSIFICATION_TYPE = U
NORAD_CAT_ID   = 68367
ELEMENT_SET_NO = 999
REV_AT_EPOCH   = 160
BSTAR          = .29390479E-3
MEAN_MOTION_DOT = .85561E-3
MEAN_MOTION_DDOT = .1390268E-5

CCSDS_OMM_VERS = 2.0
CREATION_DATE  = 
ORIGINATOR     = 

OBJECT_NAME    = RASSVET-3 9
OBJECT_ID      = 2026-061J
CENTER_NAME    = EARTH
REF_FRAME      = TEME
TIME_SYSTEM    = UTC
MEAN_ELEMENT_THEORY = SGP/SGP4

EPOCH          = 2026-04-02T22:10:25.601088
MEAN_MOTION    = 15.89437855
ECCENTRICITY   = .00258103
INCLINATION    = 82.2960
RA_OF_ASC_NODE = 97.1436
ARG_OF_PERICENTER = 36.6425
MEAN_ANOMALY   = 323.6605

EPHEMERIS_TYPE = 0
CLASSIFICATION_TYPE = U
NORAD_CAT_ID   = 68368
ELEMENT_SET_NO = 999
REV_AT_EPOCH   = 162
BSTAR          = .54764307E-3
MEAN_MOTION_DOT = .163303E-2
MEAN_MOTION_DDOT = .82229E-5

CCSDS_OMM_VERS = 2.0
CREATION_DATE  = 
ORIGINATOR     = 

OBJECT_NAME    = RASSVET-3 10
OBJECT_ID      = 2026-061K
CENTER_NAME    = EARTH
REF_FRAME      = TEME
TIME_SYSTEM    = UTC
MEAN_ELEMENT_THEORY = SGP/SGP4

EPOCH          = 2026-04-02T22:11:07.043712
MEAN_MOTION    = 15.88970322
ECCENTRICITY   = .00263014
INCLINATION    = 82.2966
RA_OF_ASC_NODE = 97.1447
ARG_OF_PERICENTER = 36.3230
MEAN_ANOMALY   = 323.9819

EPHEMERIS_TYPE = 0
CLASSIFICATION_TYPE = U
NORAD_CAT_ID   = 68369
ELEMENT_SET_NO = 999
REV_AT_EPOCH   = 162
BSTAR          = .29822593E-3
MEAN_MOTION_DOT = .87121E-3
MEAN_MOTION_DDOT = .1485629E-5

CCSDS_OMM_VERS = 2.0
CREATION_DATE  = 
ORIGINATOR     = 

OBJECT_NAME    = RASSVET-3 11
OBJECT_ID      = 2026-061L
CENTER_NAME    = EARTH
REF_FRAME      = TEME
TIME_SYSTEM    = UTC
MEAN_ELEMENT_THEORY = SGP/SGP4

EPOCH          = 2026-04-02T22:10:41.928096
MEAN_MOTION    = 15.89009259
ECCENTRICITY   = .00260625
INCLINATION    = 82.2965
RA_OF_ASC_NODE = 97.1441
ARG_OF_PERICENTER = 36.1673
MEAN_ANOMALY   = 324.1354

EPHEMERIS_TYPE = 0
CLASSIFICATION_TYPE = U
NORAD_CAT_ID   = 68370
ELEMENT_SET_NO = 999
REV_AT_EPOCH   = 162
BSTAR          = .29699782E-3
MEAN_MOTION_DOT = .86886E-3
MEAN_MOTION_DDOT = .1472708E-5

CCSDS_OMM_VERS = 2.0
CREATION_DATE  = 
ORIGINATOR     = 

OBJECT_NAME    = RASSVET-3 12
OBJECT_ID      = 2026-061M
CENTER_NAME    = EARTH
REF_FRAME      = TEME
TIME_SYSTEM    = UTC
MEAN_ELEMENT_THEORY = SGP/SGP4

EPOCH          = 2026-04-02T22:10:22.959840
MEAN_MOTION    = 15.89070006
ECCENTRICITY   = .00260198
INCLINATION    = 82.2966
RA_OF_ASC_NODE = 97.1439
ARG_OF_PERICENTER = 36.1787
MEAN_ANOMALY   = 324.1237

EPHEMERIS_TYPE = 0
CLASSIFICATION_TYPE = U
NORAD_CAT_ID   = 68371
ELEMENT_SET_NO = 999
REV_AT_EPOCH   = 162
BSTAR          = .2993736E-3
MEAN_MOTION_DOT = .87837E-3
MEAN_MOTION_DDOT = .1531956E-5

CCSDS_OMM_VERS = 2.0
CREATION_DATE  = 
ORIGINATOR     = 

OBJECT_NAME    = RASSVET-3 13
OBJECT_ID      = 2026-061N
CENTER_NAME    = EARTH
REF_FRAME      = TEME
TIME_SYSTEM    = UTC
MEAN_ELEMENT_THEORY = SGP/SGP4

EPOCH          = 2026-04-02T22:10:08.436864
MEAN_MOTION    = 15.89071159
ECCENTRICITY   = .00258267
INCLINATION    = 82.2967
RA_OF_ASC_NODE = 97.1435
ARG_OF_PERICENTER = 36.0449
MEAN_ANOMALY   = 324.2557

EPHEMERIS_TYPE = 0
CLASSIFICATION_TYPE = U
NORAD_CAT_ID   = 68372
ELEMENT_SET_NO = 999
REV_AT_EPOCH   = 162
BSTAR          = .29532204E-3
MEAN_MOTION_DOT = .86621E-3
MEAN_MOTION_DDOT = .1458553E-5

